[{"OBJECT_NAME":"STARLINK-5533","OBJECT_ID":"2023-058AQ","EPOCH":"2026-03-09T22:52:13.220256","MEAN_MOTION":15.01262784,"ECCENTRICITY":0.00019384,"INCLINATION":97.6048,"RA_OF_ASC_NODE":70.5271,"ARG_OF_PERICENTER":89.8933,"MEAN_ANOMALY":270.2514,"EPHEMERIS_TYPE":0,"CLASSIFICATION_TYPE":"U","NORAD_CAT_ID":56355,"ELEMENT_SET_NO":999,"REV_AT_EPOCH":15817,"BSTAR":5.7430795e-5,"MEAN_MOTION_DOT":6.79e-6,"MEAN_MOTION_DDOT":0},{"OBJECT_NAME":"PEGASUS DEB","OBJECT_ID":"1994-029ADX","EPOCH":"2026-03-09T09:28:23.318976","MEAN_MOTION":14.6203201,"ECCENTRICITY":0.02006923,"INCLINATION":81.7501,"RA_OF_ASC_NODE":60.5188,"ARG_OF_PERICENTER":218.4257,"MEAN_ANOMALY":140.2511,"EPHEMERIS_TYPE":0,"CLASSIFICATION_TYPE":"U","NORAD_CAT_ID":25442,"ELEMENT_SET_NO":999,"REV_AT_EPOCH":53774,"BSTAR":0.00076652384,"MEAN_MOTION_DOT":5.157e-5,"MEAN_MOTION_DDOT":0}]
